{"type": "FeatureCollection", "features": [ {"type": "Feature", "properties": {"norad_id": 66483, "name": "STARLINK-35654", "group": "last-30-days", "lat": 7.667713721076727, "lon": 99.3001743091124, "alt_km": 413.8746722268952, "timestamp": "2025-12-09T07:41:31.971985+00:00", "meta": {"OBJECT_NAME": "STARLINK-35654", "OBJECT_ID": "2025-262AD", "EPOCH": "2025-12-08T22:00:03.000096", "MEAN_MOTION": 15.5059992, "ECCENTRICITY": 0.00016011, "INCLINATION": 43.0007, "RA_OF_ASC_NODE": 93.3558, "ARG_OF_PERICENTER": 277.4575, "MEAN_ANOMALY": 357.1148, "EPHEMERIS_TYPE": 0, "CLASSIFICATION_TYPE": "U", "NORAD_CAT_ID": 66483, "ELEMENT_SET_NO": 999, "REV_AT_EPOCH": 502, "BSTAR": -0.0011876446, "MEAN_MOTION_DOT": -0.00069453, "MEAN_MOTION_DDOT": 0}, "tle": {"line1": "1 66483U 25262AD  25342.91670139 -.00069453  00000+0 -11876-2 0  9999", "line2": "2 66483  43.0007  93.3558 0001601 277.4575 357.1148 15.50599920  5022"}}, "geometry": {"type": "Point", "coordinates": [99.3001743091124, 7.667713721076727]}}, {"type": "Feature", "properties": {"norad_id": 66484, "name": "STARLINK-35371", "group": "last-30-days", "lat": 8.958500980141164, "lon": 100.7286396761555, "alt_km": 413.78472810736, "timestamp": "2025-12-09T07:41:31.971994+00:00", "meta": {"OBJECT_NAME": "STARLINK-35371", "OBJECT_ID": "2025-262AE", "EPOCH": "2025-12-08T22:00:03.000096", "MEAN_MOTION": 15.50632348, "ECCENTRICITY": 0.00015598, "INCLINATION": 43.0005, "RA_OF_ASC_NODE": 93.3517, "ARG_OF_PERICENTER": 274.2589, "MEAN_ANOMALY": 2.2078, "EPHEMERIS_TYPE": 0, "CLASSIFICATION_TYPE": "U", "NORAD_CAT_ID": 66484, "ELEMENT_SET_NO": 999, "REV_AT_EPOCH": 502, "BSTAR": -0.0019062174, "MEAN_MOTION_DOT": -0.00110813, "MEAN_MOTION_DDOT": 0}, "tle": {"line1": "1 66484U 25262AE  25342.91670139 -.00110813  00000+0 -19062-2 0  9992", "line2": "2 66484  43.0005  93.3517 0001559 274.2589   2.2078 15.50632348  5020"}}, "geometry": {"type": "Point", "coordinates": [100.7286396761555, 8.958500980141164]}}, {"type": "Feature", "properties": {"norad_id": 66485, "name": "STARLINK-34774", "group": "last-30-days", "lat": -40.194542847114306, "lon": 30.22519594021303, "alt_km": 422.78779704366025, "timestamp": "2025-12-09T07:41:31.972010+00:00", "meta": {"OBJECT_NAME": "STARLINK-34774", "OBJECT_ID": "2025-263A", "EPOCH": "2025-12-08T22:00:03.000096", "MEAN_MOTION": 15.50450257, "ECCENTRICITY": 0.00014204, "INCLINATION": 43.0004, "RA_OF_ASC_NODE": 147.5333, "ARG_OF_PERICENTER": 285.0877, "MEAN_ANOMALY": 230.798, "EPHEMERIS_TYPE": 0, "CLASSIFICATION_TYPE": "U", "NORAD_CAT_ID": 66485, "ELEMENT_SET_NO": 999, "REV_AT_EPOCH": 502, "BSTAR": -0.038749264, "MEAN_MOTION_DOT": -0.02019087, "MEAN_MOTION_DDOT": 0}, "tle": {"line1": "1 66485U 25263A   25342.91670139 -.02019087  00000+0 -38749-1 0  9999", "line2": "2 66485  43.0004 147.5333 0001420 285.0877 230.7980 15.50450257  5022"}}, "geometry": {"type": "Point", "coordinates": [30.22519594021303, -40.194542847114306]}}, {"type": "Feature", "properties": {"norad_id": 66486, "name": "STARLINK-34844", "group": "last-30-days", "lat": -41.09379181554711, "lon": 34.54478336273906, "alt_km": 417.48350635699444, "timestamp": "2025-12-09T07:41:31.972021+00:00", "meta": {"OBJECT_NAME": "STARLINK-34844", "OBJECT_ID": "2025-263B", "EPOCH": "2025-12-08T22:00:03.000096", "MEAN_MOTION": 15.50590645, "ECCENTRICITY": 0.00016439, "INCLINATION": 43.0004, "RA_OF_ASC_NODE": 147.527, "ARG_OF_PERICENTER": 290.0074, "MEAN_ANOMALY": 227.8009, "EPHEMERIS_TYPE": 0, "CLASSIFICATION_TYPE": "U", "NORAD_CAT_ID": 66486, "ELEMENT_SET_NO": 999, "REV_AT_EPOCH": 497, "BSTAR": -0.0005305808, "MEAN_MOTION_DOT": -0.00031357, "MEAN_MOTION_DDOT": 0}, "tle": {"line1": "1 66486U 25263B   25342.91670139 -.00031357  00000+0 -53058-3 0  9994", "line2": "2 66486  43.0004 147.5270 0001643 290.0074 227.8009 15.50590645  4973"}}, "geometry": {"type": "Point", "coordinates": [34.54478336273906, -41.09379181554711]}}, {"type": "Feature", "properties": {"norad_id": 66487, "name": "STARLINK-34733", "group": "last-30-days", "lat": -41.52904746586865, "lon": 37.036470548131106, "alt_km": 417.4416614021102, "timestamp": "2025-12-09T07:41:31.972033+00:00", "meta": {"OBJECT_NAME": "STARLINK-34733", "OBJECT_ID": "2025-263C", "EPOCH": "2025-12-08T22:00:03.000096", "MEAN_MOTION": 15.50592081, "ECCENTRICITY": 0.0001586, "INCLINATION": 43.0005, "RA_OF_ASC_NODE": 147.5232, "ARG_OF_PERICENTER": 284.6843, "MEAN_ANOMALY": 235.0445, "EPHEMERIS_TYPE": 0, "CLASSIFICATION_TYPE": "U", "NORAD_CAT_ID": 66487, "ELEMENT_SET_NO": 999, "REV_AT_EPOCH": 502, "BSTAR": -0.0004626931, "MEAN_MOTION_DOT": -0.00027403, "MEAN_MOTION_DDOT": 0}, "tle": {"line1": "1 66487U 25263C   25342.91670139 -.00027403  00000+0 -46269-3 0  9998", "line2": "2 66487  43.0005 147.5232 0001586 284.6843 235.0445 15.50592081  5020"}}, "geometry": {"type": "Point", "coordinates": [37.036470548131106, -41.52904746586865]}}, {"type": "Feature", "properties": {"norad_id": 66488, "name": "STARLINK-35515", "group": "last-30-days", "lat": -41.90708154961581, "lon": 39.54242356408038, "alt_km": 417.52892047353544, "timestamp": "2025-12-09T07:41:31.972043+00:00", "meta": {"OBJECT_NAME": "STARLINK-35515", "OBJECT_ID": "2025-263D", "EPOCH": "2025-12-08T22:00:03.000096", "MEAN_MOTION": 15.50593763, "ECCENTRICITY": 0.00015356, "INCLINATION": 43.0002, "RA_OF_ASC_NODE": 147.5177, "ARG_OF_PERICENTER": 289.4498, "MEAN_ANOMALY": 232.1972, "EPHEMERIS_TYPE": 0, "CLASSIFICATION_TYPE": "U", "NORAD_CAT_ID": 66488, "ELEMENT_SET_NO": 999, "REV_AT_EPOCH": 502, "BSTAR": -0.00060660547, "MEAN_MOTION_DOT": -0.00035785, "MEAN_MOTION_DDOT": 0}, "tle": {"line1": "1 66488U 25263D   25342.91670139 -.00035785  00000+0 -60661-3 0  9993", "line2": "2 66488  43.0002 147.5177 0001535 289.4498 232.1972 15.50593763  5020"}}, "geometry": {"type": "Point", "coordinates": [39.54242356408038, -41.90708154961581]}}, {"type": "Feature", "properties": {"norad_id": 66489, "name": "STARLINK-35696", "group": "last-30-days", "lat": -42.22852877489026, "lon": 42.062279022658046, "alt_km": 417.3871123564604, "timestamp": "2025-12-09T07:41:31.972055+00:00", "meta": {"OBJECT_NAME": "STARLINK-35696", "OBJECT_ID": "2025-263E", "EPOCH": "2025-12-08T22:00:03.000096", "MEAN_MOTION": 15.50556643, "ECCENTRICITY": 0.0001738, "INCLINATION": 43.0003, "RA_OF_ASC_NODE": 147.5125, "ARG_OF_PERICENTER": 285.763, "MEAN_ANOMALY": 237.819, "EPHEMERIS_TYPE": 0, "CLASSIFICATION_TYPE": "U", "NORAD_CAT_ID": 66489, "ELEMENT_SET_NO": 999, "REV_AT_EPOCH": 502, "BSTAR": 7.2890597e-05, "MEAN_MOTION_DOT": 3.933e-05, "MEAN_MOTION_DDOT": 0}, "tle": {"line1": "1 66489U 25263E   25342.91670139  .00003933  00000+0  72891-4 0  9991", "line2": "2 66489  43.0003 147.5125 0001738 285.7630 237.8190 15.50556643  5027"}}, "geometry": {"type": "Point", "coordinates": [42.062279022658046, -42.22852877489026]}}, {"type": "Feature", "properties": {"norad_id": 66490, "name": "STARLINK-35693", "group": "last-30-days", "lat": -42.4950201464618, "lon": 44.618668233582895, "alt_km": 417.4907707707771, "timestamp": "2025-12-09T07:41:31.972066+00:00", "meta": {"OBJECT_NAME": "STARLINK-35693", "OBJECT_ID": "2025-263F", "EPOCH": "2025-12-08T22:00:03.000096", "MEAN_MOTION": 15.50610782, "ECCENTRICITY": 0.00016032, "INCLINATION": 43.0002, "RA_OF_ASC_NODE": 147.508, "ARG_OF_PERICENTER": 291.7069, "MEAN_ANOMALY": 233.7451, "EPHEMERIS_TYPE": 0, "CLASSIFICATION_TYPE": "U", "NORAD_CAT_ID": 66490, "ELEMENT_SET_NO": 999, "REV_AT_EPOCH": 502, "BSTAR": -0.00092791122, "MEAN_MOTION_DOT": -0.00054462, "MEAN_MOTION_DDOT": 0}, "tle": {"line1": "1 66490U 25263F   25342.91670139 -.00054462  00000+0 -92791-3 0  9998", "line2": "2 66490  43.0002 147.5080 0001603 291.7069 233.7451 15.50610782  5022"}}, "geometry": {"type": "Point", "coordinates": [44.618668233582895, -42.4950201464618]}}, {"type": "Feature", "properties": {"norad_id": 66491, "name": "STARLINK-35663", "group": "last-30-days", "lat": -42.85677937464689, "lon": 49.82132344516538, "alt_km": 417.3968065308809, "timestamp": "2025-12-09T07:41:31.972076+00:00", "meta": {"OBJECT_NAME": "STARLINK-35663", "OBJECT_ID": "2025-263G", "EPOCH": "2025-12-08T22:00:03.000096", "MEAN_MOTION": 15.50594979, "ECCENTRICITY": 0.00016588, "INCLINATION": 43.0003, "RA_OF_ASC_NODE": 147.4981, "ARG_OF_PERICENTER": 287.8263, "MEAN_ANOMALY": 241.4884, "EPHEMERIS_TYPE": 0, "CLASSIFICATION_TYPE": "U", "NORAD_CAT_ID": 66491, "ELEMENT_SET_NO": 999, "REV_AT_EPOCH": 502, "BSTAR": -0.00054460538, "MEAN_MOTION_DOT": -0.00032178, "MEAN_MOTION_DDOT": 0}, "tle": {"line1": "1 66491U 25263G   25342.91670139 -.00032178  00000+0 -54461-3 0  9991", "line2": "2 66491  43.0003 147.4981 0001658 287.8263 241.4884 15.50594979  5020"}}, "geometry": {"type": "Point", "coordinates": [49.82132344516538, -42.85677937464689]}}, {"type": "Feature", "properties": {"norad_id": 66492, "name": "STARLINK-35673", "group": "last-30-days", "lat": -42.940073921585835, "lon": 52.097477426342074, "alt_km": 418.9499172941023, "timestamp": "2025-12-09T07:41:31.972086+00:00", "meta": {"OBJECT_NAME": "STARLINK-35673", "OBJECT_ID": "2025-263H", "EPOCH": "2025-12-08T22:00:03.000096", "MEAN_MOTION": 15.50891307, "ECCENTRICITY": 0.00015494, "INCLINATION": 43.0006, "RA_OF_ASC_NODE": 147.4939, "ARG_OF_PERICENTER": 290.6478, "MEAN_ANOMALY": 240.5301, "EPHEMERIS_TYPE": 0, "CLASSIFICATION_TYPE": "U", "NORAD_CAT_ID": 66492, "ELEMENT_SET_NO": 999, "REV_AT_EPOCH": 502, "BSTAR": -0.018505831, "MEAN_MOTION_DOT": -0.01002096, "MEAN_MOTION_DDOT": 0}, "tle": {"line1": "1 66492U 25263H   25342.91670139 -.01002096  00000+0 -18506-1 0  9997", "line2": "2 66492  43.0006 147.4939 0001549 290.6478 240.5301 15.50891307  5025"}}, "geometry": {"type": "Point", "coordinates": [52.097477426342074, -42.940073921585835]}}]}